COSMOS 2426 (717)       
1 29671U 06062B   19062.77642723  .00000047  00000-0  10000-3 0  9990
2 29671  65.1705 283.8610 0016464 160.4605 195.6921  2.13103025 94847
COSMOS 2433 (720)       
1 32275U 07052A   19063.47334661 -.00000028  00000-0  10000-3 0  9991
2 32275  65.8088  44.6390 0005299 274.1008 233.0548  2.13104414 88370
COSMOS 2432 (719)       
1 32276U 07052B   19062.71775531 -.00000026  00000-0  10000-3 0  9991
2 32276  65.8204  44.7459 0013085 323.3887 275.4115  2.13103773 88357
COSMOS 2434 (721)       
1 32393U 07065A   19063.10290542  .00000047  00000-0  00000+0 0  9990
2 32393  64.7686 282.5969 0004859  84.6734  25.8080  2.13102924 87077
COSMOS 2436 (723)       
1 32395U 07065C   19062.85571912  .00000048  00000-0  10000-3 0  9992
2 32395  64.7785 282.6586 0017205   4.2193 328.3890  2.13104230 86993
COSMOS 2456 (730)       
1 36111U 09070A   19062.63071831 -.00000029  00000-0  00000+0 0  9996
2 36111  64.1953 162.2339 0003697 325.8653 315.2516  2.13102744 71729
COSMOS 2457 (733)       
1 36112U 09070B   19062.90682205 -.00000026  00000-0  00000+0 0  9997
2 36112  64.1779 162.1295 0005975 162.4040  96.1172  2.13101454 71733
COSMOS 2459 (731)       
1 36400U 10007A   19063.12733517 -.00000029  00000-0  10000-3 0  9995
2 36400  65.7159  43.6807 0027799 345.7221 112.7699  2.13102154 70094
COSMOS 2461 (735)       
1 36401U 10007B   19062.98560759 -.00000029  00000-0  10000-3 0  9995
2 36401  65.7084  43.6572 0005293  41.9625 218.3341  2.13102067 70088
COSMOS 2460 (732)       
1 36402U 10007C   19063.13223146 -.00000030  00000-0  10000-3 0  9992
2 36402  65.6973  43.6182 0002852 291.4243 121.4943  2.13101489 70098
COSMOS 2464 (736)       
1 37139U 10041C   19063.36988153  .00000046  00000-0  00000+0 0  9990
2 37139  64.3717 282.2618 0026532  14.1661 168.1792  2.13100611 66167
COSMOS 2474 (742)       
1 37829U 11055A   19063.06477075 -.00000025  00000-0  00000+0 0  9993
2 37829  64.5177 163.0455 0008038 243.4670 227.5611  2.13101789 57738
COSMOS 2476 (744)       
1 37867U 11064A   19063.35672771 -.00000021  00000-0  00000+0 0  9993
2 37867  64.4977 163.0914 0018084 238.7756 142.3401  2.13101867 57098
COSMOS 2477 (745)       
1 37868U 11064B   19062.96867144 -.00000026  00000-0  00000+0 0  9995
2 37868  64.5057 163.1549 0015743 239.6254  22.5454  2.13101653 57030
COSMOS 2475 (743)       
1 37869U 11064C   19062.78883000 -.00000028  00000-0  00000+0 0  9997
2 37869  64.5135 163.1585 0019798 265.0368 176.1533  2.13101800 57040
COSMOS 2485 (747)       
1 39155U 13019A   19063.31043542 -.00000021  00000-0  00000+0 0  9991
2 39155  64.6665 163.2589 0018606 233.7573 156.6293  2.13101821 45564
COSMOS 2492 (754)       
1 39620U 14012A   19063.05124797 -.00000030  00000-0  10000-3 0  9990
2 39620  65.5883  43.4697 0016390 321.8477 264.7206  2.13103317 38505
COSMOS 2500 (755)       
1 40001U 14032A   19063.53721470 -.00000031  00000-0  00000+0 0  9997
2 40001  65.5303  43.4040 0007004 231.4093 229.6217  2.13102668 36734
COSMOS 2501 (702K)      
1 40315U 14075A   19063.12046498  .00000044  00000-0  00000+0 0  9990
2 40315  64.0927 283.3892 0014498 206.0859  94.1876  2.13098483 33126
COSMOS 2514 (751)       
1 41330U 16008A   19062.57107501 -.00000030  00000-0  00000-0 0  9994
2 41330  65.3317  43.4247 0010644 231.0947  30.2191  2.13103109 23879
COSMOS 2516 (753)       
1 41554U 16032A   19063.50293429  .00000044  00000-0  00000+0 0  9991
2 41554  64.3166 283.3159 0010386 219.2988 287.5778  2.13101618 21500
COSMOS 2522 (752)       
1 42939U 17055A   19063.01877438  .00000046  00000-0  00000+0 0  9991
2 42939  64.5436 283.3753 0005511 254.8307 107.0978  2.13101934 11254
COSMOS 2527 (756)       
1 43508U 18053A   19062.83815760 -.00000027  00000-0  00000-0 0  9993
2 43508  64.8316 163.0235 0006780 229.8419  24.4817  2.13102536  5538
COSMOS 2529 (757)       
1 43687U 18086A   19063.27197590  .00000046  00000-0  00000+0 0  9999
2 43687  64.7578 283.3584 0008735 282.8821 229.0213  2.13102041  2560
